NORAD_CAT_ID,OBJECT_NAME,OBJECT_TYPE,EPOCH,MEAN_MOTION,ECCENTRICITY,INCLINATION,RA_OF_ASC_NODE,ARG_OF_PERICENTER,MEAN_ANOMALY,BSTAR,MEAN_MOTION_DOT,MEAN_MOTION_DDOT,TLE_LINE0,TLE_LINE1,TLE_LINE2,SEMIMAJOR_AXIS,PERIOD,APOGEE,PERIGEE,DECAYED
54163.0,STARLINK-5161,PAYLOAD,2023-08-21 00:18:15,15.08829133,0.0001407,53.2161,226.7512,92.4904,267.6249,8.9397e-05,1.135e-05,0.0,0 STARLINK-5161,1 54163U 22141G   23233.01267664  .00001135  00000-0  89397-4 0  9994,2 54163  53.2161 226.7512 0001407  92.4904 267.6249 15.08829133 45201,6917.914,95.438,540.752,538.805,0.0
54163.0,STARLINK-5161,PAYLOAD,2023-08-21 11:25:57,15.08836224,0.0001385,53.2159,224.6705,91.1955,268.9196,0.00010278,1.348e-05,0.0,0 STARLINK-5161,1 54163U 22141G   23233.47635482  .00001348  00000-0  10278-3 0  9998,2 54163  53.2159 224.6705 0001385  91.1955 268.9196 15.08836224 45277,6917.892,95.438,540.715,538.799,0.0
54163.0,STARLINK-5161,PAYLOAD,2023-08-22 06:30:35,15.08830152,0.0001373,53.216,221.1022,93.5985,266.5164,0.00012122,1.641e-05,0.0,0 STARLINK-5161,1 54163U 22141G   23234.27124481  .00001641  00000-0  12122-3 0  9995,2 54163  53.2160 221.1022 0001373  93.5985 266.5164 15.08830152 45395,6917.91,95.438,540.725,538.826,0.0
54163.0,STARLINK-5161,PAYLOAD,2023-08-23 11:07:31,15.08844224,0.0001374,53.2163,215.7493,91.6719,268.4431,9.8149e-05,1.275e-05,0.0,0 STARLINK-5161,1 54163U 22141G   23235.46356023  .00001275  00000-0  98149-4 0  9993,2 54163  53.2163 215.7493 0001374  91.6719 268.4431 15.08844224 45577,6917.867,95.437,540.683,538.782,0.0
54163.0,STARLINK-5161,PAYLOAD,2023-08-24 22:06:01,15.08837925,0.000141,53.2139,209.2075,92.1577,267.9577,5.3149e-05,5.58e-06,0.0,0 STARLINK-5161,1 54163U 22141G   23236.92084701  .00000558  00000-0  53149-4 0  9990,2 54163  53.2139 209.2075 0001410  92.1577 267.9577 15.08837925 45792,6917.887,95.438,540.727,538.776,0.0
54163.0,STARLINK-5161,PAYLOAD,2023-08-25 02:52:10,15.08839322,0.0001473,53.2142,208.3151,102.6452,257.4705,2.927e-05,1.78e-06,0.0,0 STARLINK-5161,1 54163U 22141G   23237.11956663  .00000178  00000-0  29270-4 0  9993,2 54163  53.2142 208.3151 0001473 102.6452 257.4705 15.08839322 45823,6917.882,95.438,540.766,538.728,0.0
54163.0,STARLINK-5161,PAYLOAD,2023-08-25 04:27:33,15.08838097,0.0001384,53.2148,208.0177,89.7563,270.3587,4.2501e-05,3.89e-06,0.0,0 STARLINK-5161,1 54163U 22141G   23237.18580730  .00000389  00000-0  42501-4 0  9994,2 54163  53.2148 208.0177 0001384  89.7563 270.3587 15.08838097 45834,6917.886,95.438,540.709,538.794,0.0
54163.0,STARLINK-5161,PAYLOAD,2023-08-26 07:29:06,15.08848153,0.0001435,53.2152,202.9624,96.2036,263.9119,8.942e-05,1.136e-05,0.0,0 STARLINK-5161,1 54163U 22141G   23238.31187844  .00001136  00000-0  89420-4 0  9991,2 54163  53.2152 202.9624 0001435  96.2036 263.9119 15.08848153 46007,6917.855,95.437,540.713,538.728,0.0
54163.0,STARLINK-5161,PAYLOAD,2023-08-26 18:36:49,15.08834993,0.0001648,53.2149,200.8829,75.6985,284.419,5.8049e-05,6.36e-06,0.0,0 STARLINK-5161,1 54163U 22141G   23238.77556918  .00000636  00000-0  58049-4 0  9990,2 54163  53.2149 200.8829 0001648  75.6985 284.4190 15.08834993 46078,6917.896,95.438,540.901,538.621,0.0
54163.0,STARLINK-5161,PAYLOAD,2023-08-26 21:47:35,15.08835515,0.0001569,53.2152,200.2879,83.5211,276.596,5.968e-05,6.62e-06,0.0,0 STARLINK-5161,1 54163U 22141G   23238.90804780  .00000662  00000-0  59680-4 0  9999,2 54163  53.2152 200.2879 0001569  83.5211 276.5960 15.08835515 46093,6917.894,95.438,540.845,538.674,0.0
54163.0,STARLINK-5161,PAYLOAD,2023-08-27 07:19:53,15.08841242,0.0001526,53.2167,198.503,96.501,263.6156,6.0282e-05,6.72e-06,0.0,0 STARLINK-5161,1 54163U 22141G   23239.30548370  .00000672  00000-0  60282-4 0  9995,2 54163  53.2167 198.5030 0001526  96.5010 263.6156 15.08841242 46156,6917.877,95.437,540.797,538.686,0.0
54163.0,STARLINK-5161,PAYLOAD,2023-08-27 21:38:22,15.08839089,0.0001419,53.217,195.8268,97.584,262.5313,-4.765e-05,-1.046e-05,0.0,0 STARLINK-5161,1 54163U 22141G   23239.90164887 -.00001046  00000-0 -47650-4 0  9990,2 54163  53.2170 195.8268 0001419  97.5840 262.5313 15.08839089 46245,6917.883,95.438,540.73,538.767,0.0
54163.0,STARLINK-5161,PAYLOAD,2023-08-28 13:32:13,15.08839793,0.0001439,53.2166,192.8532,88.2459,271.8698,-1.0083e-05,-4.48e-06,0.0,0 STARLINK-5161,1 54163U 22141G   23240.56404721 -.00000448  00000-0 -10083-4 0  9993,2 54163  53.2166 192.8532 0001439  88.2459 271.8698 15.08839793 46348,6917.881,95.438,540.742,538.751,0.0
54163.0,STARLINK-5161,PAYLOAD,2023-08-28 21:29:09,15.08834902,0.0001366,53.2168,191.3667,94.0093,266.1055,5.2667e-05,5.5e-06,0.0,0 STARLINK-5161,1 54163U 22141G   23240.89524936  .00000550  00000-0  52667-4 0  9996,2 54163  53.2168 191.3667 0001366  94.0093 266.1055 15.08834902 46397,6917.896,95.438,540.706,538.816,0.0
54163.0,STARLINK-5161,PAYLOAD,2023-08-29 13:23:00,15.08837462,0.0001329,53.2168,188.3927,92.6661,267.4484,1.3404e-05,-7.5e-07,0.0,0 STARLINK-5161,1 54163U 22141G   23241.55764969 -.00000075  00000-0  13404-4 0  9991,2 54163  53.2168 188.3927 0001329  92.6661 267.4484 15.08837462 46491,6917.888,95.438,540.673,538.834,0.0
54163.0,STARLINK-5161,PAYLOAD,2023-08-30 00:30:43,15.08829729,0.0001298,53.2168,186.3113,94.2285,265.8855,-3.8974e-05,-9.08e-06,0.0,0 STARLINK-5161,1 54163U 22141G   23242.02133879 -.00000908  00000-0 -38974-4 0  9999,2 54163  53.2168 186.3113 0001298  94.2285 265.8855 15.08829729 46560,6917.912,95.438,540.675,538.879,0.0
54163.0,STARLINK-5161,PAYLOAD,2023-08-30 06:52:15,15.0883732,0.0001306,53.2169,185.1219,91.5067,268.6075,2.8899e-05,1.72e-06,0.0,0 STARLINK-5161,1 54163U 22141G   23242.28629324  .00000172  00000-0  28899-4 0  9998,2 54163  53.2169 185.1219 0001306  91.5067 268.6075 15.08837320 46609,6917.889,95.438,540.657,538.85,0.0
54163.0,STARLINK-5161,PAYLOAD,2023-08-30 13:13:48,15.08837683,0.0001327,53.2171,183.9327,93.0761,267.0383,-8.8805e-07,-3.02e-06,0.0,0 STARLINK-5161,1 54163U 22141G   23242.55125433 -.00000302  00000-0 -88805-6 0  9992,2 54163  53.2171 183.9327 0001327  93.0761 267.0383 15.08837683 46640,6917.887,95.438,540.67,538.834,0.0
54163.0,STARLINK-5161,PAYLOAD,2023-08-31 05:07:38,15.08847872,0.000141,53.2173,180.958,94.5173,265.598,0.00010681,1.413e-05,0.0,0 STARLINK-5161,1 54163U 22141G   23243.21364554  .00001413  00000-0  10681-3 0  9991,2 54163  53.2173 180.9580 0001410  94.5173 265.5980 15.08847872 46744,6917.856,95.437,540.697,538.746,0.0
54163.0,STARLINK-5161,PAYLOAD,2023-09-01 01:47:40,15.08834202,0.0001936,53.2186,177.0902,95.0544,265.067,9.5924e-05,1.239e-05,0.0,0 STARLINK-5161,1 54163U 22141G   23244.07477741  .00001239  00000-0  95924-4 0  9999,2 54163  53.2186 177.0902 0001936  95.0544 265.0670 15.08834202 46872,6917.898,95.438,541.102,538.424,0.0
54163.0,STARLINK-5161,PAYLOAD,2023-09-01 12:55:22,15.08840141,0.0001459,53.2167,175.0094,94.6235,265.4924,6.4438e-05,7.38e-06,0.0,0 STARLINK-5161,1 54163U 22141G   23244.53845525  .00000738  00000-0  64438-4 0  9998,2 54163  53.2167 175.0094 0001459  94.6235 265.4924 15.08840141 46946,6917.88,95.438,540.754,538.736,0.0
54163.0,STARLINK-5161,PAYLOAD,2023-09-01 19:16:54,15.08845007,0.0001301,53.2174,173.8212,90.3035,269.8106,0.00011249,1.503e-05,0.0,0 STARLINK-5161,1 54163U 22141G   23244.80341049  .00001503  00000-0  11249-3 0  9992,2 54163  53.2174 173.8212 0001301  90.3035 269.8106 15.08845007 46989,6917.865,95.437,540.63,538.83,0.0
54163.0,STARLINK-5161,PAYLOAD,2023-09-02 01:38:26,15.0885612,0.0001343,53.2172,172.6334,84.7175,275.397,9.579e-05,1.238e-05,0.0,0 STARLINK-5161,1 54163U 22141G   23245.06836224  .00001238  00000-0  95790-4 0  9994,2 54163  53.2172 172.6334 0001343  84.7175 275.3970 15.08856120 47022,6917.831,95.437,540.625,538.767,0.0
54163.0,STARLINK-5161,PAYLOAD,2023-09-02 19:07:41,15.08844861,7.54e-05,53.2161,169.3609,314.8817,45.2114,6.5075e-05,7.48e-06,0.0,0 STARLINK-5161,1 54163U 22141G   23245.79701031  .00000748  00000-0  65075-4 0  9999,2 54163  53.2161 169.3609 0000754 314.8817  45.2114 15.08844861 47138,6917.866,95.437,540.252,539.209,0.0
54163.0,STARLINK-5161,PAYLOAD,2023-09-03 01:29:14,15.08843554,0.0001478,53.2156,168.1681,103.6924,256.4232,0.00010285,1.349e-05,0.0,0 STARLINK-5161,1 54163U 22141G   23246.06196893  .00001349  00000-0  10285-3 0  9994,2 54163  53.2156 168.1681 0001478 103.6924 256.4232 15.08843554 47175,6917.87,95.437,540.757,538.712,0.0
54163.0,STARLINK-5161,PAYLOAD,2023-09-04 01:20:02,15.08838547,0.0001442,53.2158,163.7107,90.814,269.3017,-8.0755e-05,-1.573e-05,0.0,0 STARLINK-5161,1 54163U 22141G   23247.05557913 -.00001573  00000-0 -80755-4 0  9999,2 54163  53.2158 163.7107 0001442  90.8140 269.3017 15.08838547 47326,6917.885,95.438,540.747,538.752,0.0
54163.0,STARLINK-5161,PAYLOAD,2023-09-04 06:06:11,15.08839973,4.4e-05,53.2168,162.8187,331.7361,28.3607,2.9523e-05,1.82e-06,0.0,0 STARLINK-5161,1 54163U 22141G   23247.25429633  .00000182  00000-0  29523-4 0  9997,2 54163  53.2168 162.8187 0000440 331.7361  28.3607 15.08839973 47359,6917.88,95.438,540.05,539.441,0.0
54163.0,STARLINK-5161,PAYLOAD,2023-09-05 01:10:49,15.08836159,0.0001338,53.2169,159.2509,101.4106,258.7036,8.2233e-05,1.021e-05,0.0,0 STARLINK-5161,1 54163U 22141G   23248.04917978  .00001021  00000-0  82233-4 0  9999,2 54163  53.2169 159.2509 0001338 101.4106 258.7036 15.08836159 47475,6917.892,95.438,540.683,538.832,0.0
54163.0,STARLINK-5161,PAYLOAD,2023-09-06 02:36:59,15.08840625,0.0001326,53.2173,154.4936,92.1769,267.9375,0.00015081,2.113e-05,0.0,0 STARLINK-5161,1 54163U 22141G   23249.10901875  .00002113  00000-0  15081-3 0  9995,2 54163  53.2173 154.4936 0001326  92.1769 267.9375 15.08840625 47638,6917.878,95.438,540.661,538.826,0.0
54163.0,STARLINK-5161,PAYLOAD,2023-09-08 00:43:10,15.08847793,0.0001278,53.2166,145.8688,83.0184,277.0954,6.1206e-06,-1.9e-06,0.0,0 STARLINK-5161,1 54163U 22141G   23251.02997955 -.00000190  00000-0  61206-5 0  9999,2 54163  53.2166 145.8688 0001278  83.0184 277.0954 15.08847793 47924,6917.857,95.437,540.606,538.837,0.0
